[{"OBJECT_NAME":"STARLINK-30897","OBJECT_ID":"2023-177K","EPOCH":"2026-03-08T05:48:58.955328","MEAN_MOTION":15.02536105,"ECCENTRICITY":0.00010385,"INCLINATION":43.004,"RA_OF_ASC_NODE":359.8314,"ARG_OF_PERICENTER":267.2681,"MEAN_ANOMALY":92.8042,"EPHEMERIS_TYPE":0,"CLASSIFICATION_TYPE":"U","NORAD_CAT_ID":58360,"ELEMENT_SET_NO":999,"REV_AT_EPOCH":12799,"BSTAR":0.00011732058,"MEAN_MOTION_DOT":1.382e-5,"MEAN_MOTION_DDOT":0},{"OBJECT_NAME":"CZ-4C DEB","OBJECT_ID":"2018-031G","EPOCH":"2026-03-09T17:35:43.516320","MEAN_MOTION":15.0216174,"ECCENTRICITY":0.00078465,"INCLINATION":97.7704,"RA_OF_ASC_NODE":152.3432,"ARG_OF_PERICENTER":232.9325,"MEAN_ANOMALY":127.1182,"EPHEMERIS_TYPE":0,"CLASSIFICATION_TYPE":"U","NORAD_CAT_ID":43265,"ELEMENT_SET_NO":999,"REV_AT_EPOCH":42950,"BSTAR":0.00075767681,"MEAN_MOTION_DOT":9.924e-5,"MEAN_MOTION_DDOT":0}]
